[{"OBJECT_NAME":"NOAA 2 (ITOS-D)","OBJECT_ID":"1972-082A","EPOCH":"2026-04-05T13:42:33.732000","MEAN_MOTION":12.5321278,"ECCENTRICITY":0.00037246,"INCLINATION":102.0138,"RA_OF_ASC_NODE":113.3337,"ARG_OF_PERICENTER":311.8367,"MEAN_ANOMALY":165.75,"EPHEMERIS_TYPE":0,"CLASSIFICATION_TYPE":"U","NORAD_CAT_ID":6235,"ELEMENT_SET_NO":999,"REV_AT_EPOCH":44585,"BSTAR":6.6316022e-5,"MEAN_MOTION_DOT":-3.6e-7,"MEAN_MOTION_DDOT":0},{"OBJECT_NAME":"OSCAR 7 (AO-7)","OBJECT_ID":"1974-089B","EPOCH":"2026-04-05T14:49:35.948352","MEAN_MOTION":12.53696919,"ECCENTRICITY":0.00118687,"INCLINATION":101.9951,"RA_OF_ASC_NODE":108.0976,"ARG_OF_PERICENTER":269.4646,"MEAN_ANOMALY":201.5853,"EPHEMERIS_TYPE":0,"CLASSIFICATION_TYPE":"U","NORAD_CAT_ID":7530,"ELEMENT_SET_NO":999,"REV_AT_EPOCH":35142,"BSTAR":-4.3107322e-5,"MEAN_MOTION_DOT":-5.3e-7,"MEAN_MOTION_DDOT":0},{"OBJECT_NAME":"TIROS N","OBJECT_ID":"1978-096A","EPOCH":"2026-04-05T14:23:36.824928","MEAN_MOTION":14.1935126,"ECCENTRICITY":0.0011643,"INCLINATION":98.4597,"RA_OF_ASC_NODE":119.9221,"ARG_OF_PERICENTER":93.2749,"MEAN_ANOMALY":266.976,"EPHEMERIS_TYPE":0,"CLASSIFICATION_TYPE":"U","NORAD_CAT_ID":11060,"ELEMENT_SET_NO":999,"REV_AT_EPOCH":66845,"BSTAR":0.00013281783,"MEAN_MOTION_DOT":2.38e-6,"MEAN_MOTION_DDOT":0},{"OBJECT_NAME":"PHASE 3B (AO-10)","OBJECT_ID":"1983-058B","EPOCH":"2026-04-05T12:41:28.214592","MEAN_MOTION":2.05871341,"ECCENTRICITY":0.60369943,"INCLINATION":25.9038,"RA_OF_ASC_NODE":231.7114,"ARG_OF_PERICENTER":95.588,"MEAN_ANOMALY":331.7332,"EPHEMERIS_TYPE":0,"CLASSIFICATION_TYPE":"U","NORAD_CAT_ID":14129,"ELEMENT_SET_NO":999,"REV_AT_EPOCH":29399,"BSTAR":0,"MEAN_MOTION_DOT":1.42e-6,"MEAN_MOTION_DDOT":0},{"OBJECT_NAME":"HILAT","OBJECT_ID":"1983-063A","EPOCH":"2026-04-05T14:54:05.341824","MEAN_MOTION":14.38665609,"ECCENTRICITY":0.00401576,"INCLINATION":82.0243,"RA_OF_ASC_NODE":228.4766,"ARG_OF_PERICENTER":149.3349,"MEAN_ANOMALY":221.8873,"EPHEMERIS_TYPE":0,"CLASSIFICATION_TYPE":"U","NORAD_CAT_ID":14154,"ELEMENT_SET_NO":999,"REV_AT_EPOCH":23715,"BSTAR":0.00022980894,"MEAN_MOTION_DOT":7.27e-6,"MEAN_MOTION_DDOT":0},{"OBJECT_NAME":"UOSAT 2 (UO-11)","OBJECT_ID":"1984-021B","EPOCH":"2026-04-05T09:23:54.621024","MEAN_MOTION":14.90607872,"ECCENTRICITY":0.00091392,"INCLINATION":97.7997,"RA_OF_ASC_NODE":61.8183,"ARG_OF_PERICENTER":69.2476,"MEAN_ANOMALY":290.972,"EPHEMERIS_TYPE":0,"CLASSIFICATION_TYPE":"U","NORAD_CAT_ID":14781,"ELEMENT_SET_NO":999,"REV_AT_EPOCH":24628,"BSTAR":0.00026969717,"MEAN_MOTION_DOT":2.586e-5,"MEAN_MOTION_DDOT":0},{"OBJECT_NAME":"NOAA 9","OBJECT_ID":"1984-123A","EPOCH":"2026-04-05T15:04:40.138176","MEAN_MOTION":14.17048516,"ECCENTRICITY":0.00144846,"INCLINATION":99.1061,"RA_OF_ASC_NODE":120.563,"ARG_OF_PERICENTER":191.5535,"MEAN_ANOMALY":279.7656,"EPHEMERIS_TYPE":0,"CLASSIFICATION_TYPE":"U","NORAD_CAT_ID":15427,"ELEMENT_SET_NO":999,"REV_AT_EPOCH":13314,"BSTAR":0.0001024028,"MEAN_MOTION_DOT":1.59e-6,"MEAN_MOTION_DDOT":0},{"OBJECT_NAME":"GEOSAT","OBJECT_ID":"1985-021A","EPOCH":"2026-04-05T11:35:47.636736","MEAN_MOTION":14.39933378,"ECCENTRICITY":0.00021439,"INCLINATION":108.0514,"RA_OF_ASC_NODE":290.1278,"ARG_OF_PERICENTER":254.656,"MEAN_ANOMALY":105.4345,"EPHEMERIS_TYPE":0,"CLASSIFICATION_TYPE":"U","NORAD_CAT_ID":15595,"ELEMENT_SET_NO":999,"REV_AT_EPOCH":15230,"BSTAR":0.00012880497,"MEAN_MOTION_DOT":2.7e-6,"MEAN_MOTION_DDOT":0},{"OBJECT_NAME":"EUTELSAT 1-F4 (ECS 4)","OBJECT_ID":"1987-078B","EPOCH":"2026-04-04T21:23:09.882240","MEAN_MOTION":0.98690497,"ECCENTRICITY":0.00119347,"INCLINATION":13.8809,"RA_OF_ASC_NODE":342.6375,"ARG_OF_PERICENTER":31.6941,"MEAN_ANOMALY":148.7233,"EPHEMERIS_TYPE":0,"CLASSIFICATION_TYPE":"U","NORAD_CAT_ID":18351,"ELEMENT_SET_NO":999,"REV_AT_EPOCH":12603,"BSTAR":0,"MEAN_MOTION_DOT":-1.66e-6,"MEAN_MOTION_DDOT":0},{"OBJECT_NAME":"PACSAT (AO-16)","OBJECT_ID":"1990-005D","EPOCH":"2026-04-05T14:45:35.980128","MEAN_MOTION":14.33913469,"ECCENTRICITY":0.00116959,"INCLINATION":98.8602,"RA_OF_ASC_NODE":129.5666,"ARG_OF_PERICENTER":85.6554,"MEAN_ANOMALY":31.5367,"EPHEMERIS_TYPE":0,"CLASSIFICATION_TYPE":"U","NORAD_CAT_ID":20439,"ELEMENT_SET_NO":999,"REV_AT_EPOCH":89153,"BSTAR":8.7333276e-5,"MEAN_MOTION_DOT":1.97e-6,"MEAN_MOTION_DDOT":0},{"OBJECT_NAME":"LUSAT (LO-19)","OBJECT_ID":"1990-005G","EPOCH":"2026-04-05T13:15:14.380992","MEAN_MOTION":14.34100072,"ECCENTRICITY":0.00125412,"INCLINATION":98.8911,"RA_OF_ASC_NODE":115.3379,"ARG_OF_PERICENTER":62.1144,"MEAN_ANOMALY":298.1309,"EPHEMERIS_TYPE":0,"CLASSIFICATION_TYPE":"U","NORAD_CAT_ID":20442,"ELEMENT_SET_NO":999,"REV_AT_EPOCH":89198,"BSTAR":9.0458818e-5,"MEAN_MOTION_DOT":2.06e-6,"MEAN_MOTION_DDOT":0},{"OBJECT_NAME":"IRS-1B","OBJECT_ID":"1991-061A","EPOCH":"2026-04-05T14:55:53.730624","MEAN_MOTION":13.97867189,"ECCENTRICITY":0.00238778,"INCLINATION":99.4147,"RA_OF_ASC_NODE":101.7542,"ARG_OF_PERICENTER":198.3796,"MEAN_ANOMALY":271.7528,"EPHEMERIS_TYPE":0,"CLASSIFICATION_TYPE":"U","NORAD_CAT_ID":21688,"ELEMENT_SET_NO":999,"REV_AT_EPOCH":65835,"BSTAR":9.226563e-5,"MEAN_MOTION_DOT":8.4e-7,"MEAN_MOTION_DDOT":0},{"OBJECT_NAME":"COSMOS 2197","OBJECT_ID":"1992-042A","EPOCH":"2026-04-05T13:56:14.900928","MEAN_MOTION":12.64250181,"ECCENTRICITY":0.00135743,"INCLINATION":82.5894,"RA_OF_ASC_NODE":275.3364,"ARG_OF_PERICENTER":80.8621,"MEAN_ANOMALY":342.259,"EPHEMERIS_TYPE":0,"CLASSIFICATION_TYPE":"U","NORAD_CAT_ID":22034,"ELEMENT_SET_NO":999,"REV_AT_EPOCH":55611,"BSTAR":0.00012158437,"MEAN_MOTION_DOT":3.3e-7,"MEAN_MOTION_DDOT":0},{"OBJECT_NAME":"PEGASUS R/B","OBJECT_ID":"1993-009C","EPOCH":"2026-04-05T13:34:11.414496","MEAN_MOTION":14.57874311,"ECCENTRICITY":0.00443224,"INCLINATION":24.9766,"RA_OF_ASC_NODE":186.9871,"ARG_OF_PERICENTER":43.941,"MEAN_ANOMALY":316.4614,"EPHEMERIS_TYPE":0,"CLASSIFICATION_TYPE":"U","NORAD_CAT_ID":22491,"ELEMENT_SET_NO":999,"REV_AT_EPOCH":75902,"BSTAR":0.00021493843,"MEAN_MOTION_DOT":1.22e-5,"MEAN_MOTION_DDOT":0},{"OBJECT_NAME":"EYESAT A (AO-27)","OBJECT_ID":"1993-061C","EPOCH":"2026-04-05T10:02:27.399552","MEAN_MOTION":14.3092262,"ECCENTRICITY":0.00075324,"INCLINATION":98.693,"RA_OF_ASC_NODE":162.8415,"ARG_OF_PERICENTER":319.7882,"MEAN_ANOMALY":40.2743,"EPHEMERIS_TYPE":0,"CLASSIFICATION_TYPE":"U","NORAD_CAT_ID":22825,"ELEMENT_SET_NO":999,"REV_AT_EPOCH":69659,"BSTAR":8.1610472e-5,"MEAN_MOTION_DOT":1.7e-6,"MEAN_MOTION_DDOT":0},{"OBJECT_NAME":"ITAMSAT (IO-26)","OBJECT_ID":"1993-061D","EPOCH":"2026-04-05T10:03:57.349728","MEAN_MOTION":14.31347539,"ECCENTRICITY":0.00078277,"INCLINATION":98.6878,"RA_OF_ASC_NODE":162.7528,"ARG_OF_PERICENTER":301.0777,"MEAN_ANOMALY":58.9637,"EPHEMERIS_TYPE":0,"CLASSIFICATION_TYPE":"U","NORAD_CAT_ID":22826,"ELEMENT_SET_NO":999,"REV_AT_EPOCH":69690,"BSTAR":8.5207381e-5,"MEAN_MOTION_DOT":1.81e-6,"MEAN_MOTION_DDOT":0},{"OBJECT_NAME":"RADIO ROSTO (RS15)","OBJECT_ID":"1994-085A","EPOCH":"2026-04-05T13:38:22.363296","MEAN_MOTION":11.27583813,"ECCENTRICITY":0.01536972,"INCLINATION":64.817,"RA_OF_ASC_NODE":60.6577,"ARG_OF_PERICENTER":17.052,"MEAN_ANOMALY":343.5489,"EPHEMERIS_TYPE":0,"CLASSIFICATION_TYPE":"U","NORAD_CAT_ID":23439,"ELEMENT_SET_NO":999,"REV_AT_EPOCH":28771,"BSTAR":-0.00024124933,"MEAN_MOTION_DOT":-5.1e-7,"MEAN_MOTION_DDOT":0}]
