NOAA 2 (ITOS-D)         
1 06235U 72082A   26095.57122375 -.00000036  00000+0  66316-4 0  9994
2 06235 102.0138 113.3337 0003724 311.8367 165.7500 12.53212780445850
OSCAR 7 (AO-7)          
1 07530U 74089B   26095.61777718 -.00000053  00000+0 -43107-4 0  9997
2 07530 101.9951 108.0976 0011868 269.4646 201.5853 12.53696919351425
TIROS N                 
1 11060U 78096A   26095.59973177  .00000238  00000+0  13282-3 0  9999
2 11060  98.4597 119.9221 0011643  93.2749 266.9760 14.19351260668453
PHASE 3B (AO-10)        
1 14129U 83058B   26095.52879878  .00000142  00000+0  00000+0 0  9992
2 14129  25.9038 231.7114 6036994  95.5880 331.7332  2.05871341293992
HILAT                   
1 14154U 83063A   26095.62089516  .00000727  00000+0  22981-3 0  9994
2 14154  82.0243 228.4766 0040157 149.3349 221.8873 14.38665609237158
UOSAT 2 (UO-11)         
1 14781U 84021B   26095.39160441  .00002586  00000+0  26970-3 0  9993
2 14781  97.7997  61.8183 0009139  69.2476 290.9720 14.90607872246289
NOAA 9                  
1 15427U 84123A   26095.62824234  .00000159  00000+0  10240-3 0  9994
2 15427  99.1061 120.5630 0014484 191.5535 279.7656 14.17048516133145
GEOSAT                  
1 15595U 85021A   26095.48319024  .00000270  00000+0  12880-3 0  9994
2 15595 108.0514 290.1278 0002143 254.6560 105.4345 14.39933378152306
EUTELSAT 1-F4 (ECS 4)   
1 18351U 87078B   26094.89108660 -.00000166  00000+0  00000+0 0  9999
2 18351  13.8809 342.6375 0011934  31.6941 148.7233  0.98690497126033
PACSAT (AO-16)          
1 20439U 90005D   26095.61499977  .00000197  00000+0  87333-4 0  9990
2 20439  98.8602 129.5666 0011695  85.6554  31.5367 14.33913469891537
LUSAT (LO-19)           
1 20442U 90005G   26095.55224978  .00000206  00000+0  90459-4 0  9998
2 20442  98.8911 115.3379 0012541  62.1144 298.1309 14.34100072891989
IRS-1B                  
1 21688U 91061A   26095.62214966  .00000084  00000+0  92266-4 0  9990
2 21688  99.4147 101.7542 0023877 198.3796 271.7528 13.97867189658359
COSMOS 2197             
1 22034U 92042A   26095.58072802  .00000033  00000+0  12158-3 0  9997
2 22034  82.5894 275.3364 0013574  80.8621 342.2590 12.64250181556117
PEGASUS R/B             
1 22491U 93009C   26095.56540989  .00001220  00000+0  21494-3 0  9994
2 22491  24.9766 186.9871 0044322  43.9410 316.4614 14.57874311759029
EYESAT A (AO-27)        
1 22825U 93061C   26095.41837268  .00000170  00000+0  81610-4 0  9996
2 22825  98.6930 162.8415 0007532 319.7882  40.2743 14.30922620696592
ITAMSAT (IO-26)         
1 22826U 93061D   26095.41941377  .00000181  00000+0  85207-4 0  9992
2 22826  98.6878 162.7528 0007827 301.0777  58.9637 14.31347539696906
RADIO ROSTO (RS15)      
1 23439U 94085A   26095.56831439 -.00000051  00000+0 -24125-3 0  9992
2 23439  64.8170  60.6577 0153697  17.0520 343.5489 11.27583813287716
